IRIDIUM 171             
1 43929U 19002H   25171.62086747  .00000056  00000+0  12822-4 0  9994
2 43929  86.3994 144.9909 0002088  79.2110 280.9321 14.34217817337132
IRIDIUM 170             
1 43930U 19002J   25171.64494580  .00000715  00000+0  10945-3 0  9991
2 43930  86.6108 144.7346 0002870  83.0092 277.1452 14.72249582346069
IRIDIUM 167             
1 43931U 19002K   25171.19591384  .00000166  00000+0  52258-4 0  9996
2 43931  86.3984 144.9215 0002381  75.4791 284.6669 14.34218262337077
IRIDIUM 181             
1 56726U 23068S   25171.83099480  .00000196  00000+0  52213-4 0  9994
2 56726  86.4523 207.7119 0001813  86.0493 274.0915 14.43309620110312
IRIDIUM 177             
1 56727U 23068T   25172.19479974  .00000969  00000+0  12403-3 0  9999
2 56727  86.1980 140.2269 0002480  83.3919 276.7584 14.80229508112969
IRIDIUM 174             
1 56728U 23068U   25171.90445075  .00000717  00000+0  10973-3 0  9994
2 56728  86.6117 144.7369 0002874  97.5243 262.6301 14.72255926112865
IRIDIUM 178             
1 56729U 23068V   25171.57547434  .00000403  00000+0  49544-4 0  9999
2 56729  86.6568 176.4192 0002619  93.8353 266.3168 14.80236779112877
IRIDIUM 179             
1 56730U 23068W   25171.77291720  .00000387  00000+0  47422-4 0  9991
2 56730  86.6808 184.2175 0002657  89.2064 270.9462 14.80237912112906
